{"type": "FeatureCollection", "features": [ {"type": "Feature", "properties": {"norad_id": 32153, "name": "FENGYUN 1C DEB", "group": "fengyun-1c-debris", "lat": 34.53331448686624, "lon": -162.23197580285486, "alt_km": 847.1467184334169, "timestamp": "2025-12-26T09:30:53.923977+00:00", "meta": {"OBJECT_NAME": "FENGYUN 1C DEB", "OBJECT_ID": "1999-025CSX", "EPOCH": "2025-12-24T07:37:11.299296", "MEAN_MOTION": 14.48752929, "ECCENTRICITY": 0.02076503, "INCLINATION": 98.7689, "RA_OF_ASC_NODE": 201.7053, "ARG_OF_PERICENTER": 186.246, "MEAN_ANOMALY": 173.6138, "EPHEMERIS_TYPE": 0, "CLASSIFICATION_TYPE": "U", "NORAD_CAT_ID": 32153, "ELEMENT_SET_NO": 999, "REV_AT_EPOCH": 97391, "BSTAR": 0.00027799221, "MEAN_MOTION_DOT": 1.32e-05, "MEAN_MOTION_DDOT": 0}, "tle": {"line1": "1 32153U 99025CSX 25358.31749189  .00001320  00000+0  27799-3 0  9996", "line2": "2 32153  98.7689 201.7053 0207650 186.2460 173.6138 14.48752929973917"}}, "geometry": {"type": "Point", "coordinates": [-162.23197580285486, 34.53331448686624]}}, {"type": "Feature", "properties": {"norad_id": 32155, "name": "FENGYUN 1C DEB", "group": "fengyun-1c-debris", "lat": -35.337536332596976, "lon": -63.11337847577277, "alt_km": 815.983586768496, "timestamp": "2025-12-26T09:30:53.923987+00:00", "meta": {"OBJECT_NAME": "FENGYUN 1C DEB", "OBJECT_ID": "1999-025CSZ", "EPOCH": "2025-12-22T15:11:27.193632", "MEAN_MOTION": 14.32975023, "ECCENTRICITY": 0.00693114, "INCLINATION": 98.9542, "RA_OF_ASC_NODE": 286.5796, "ARG_OF_PERICENTER": 210.5989, "MEAN_ANOMALY": 149.1143, "EPHEMERIS_TYPE": 0, "CLASSIFICATION_TYPE": "U", "NORAD_CAT_ID": 32155, "ELEMENT_SET_NO": 999, "REV_AT_EPOCH": 70364, "BSTAR": 0.00042072892, "MEAN_MOTION_DOT": 1.135e-05, "MEAN_MOTION_DDOT": 0}, "tle": {"line1": "1 32155U 99025CSZ 25356.63295363  .00001135  00000+0  42073-3 0  9997", "line2": "2 32155  98.9542 286.5796 0069311 210.5989 149.1143 14.32975023703641"}}, "geometry": {"type": "Point", "coordinates": [-63.11337847577277, -35.337536332596976]}}, {"type": "Feature", "properties": {"norad_id": 32156, "name": "FENGYUN 1C DEB", "group": "fengyun-1c-debris", "lat": -75.35642299512482, "lon": -149.85842374001834, "alt_km": 799.0669935418673, "timestamp": "2025-12-26T09:30:53.923997+00:00", "meta": {"OBJECT_NAME": "FENGYUN 1C DEB", "OBJECT_ID": "1999-025CTA", "EPOCH": "2025-12-21T17:31:26.712192", "MEAN_MOTION": 14.31964818, "ECCENTRICITY": 0.00820417, "INCLINATION": 99.3545, "RA_OF_ASC_NODE": 166.001, "ARG_OF_PERICENTER": 31.7205, "MEAN_ANOMALY": 328.8882, "EPHEMERIS_TYPE": 0, "CLASSIFICATION_TYPE": "U", "NORAD_CAT_ID": 32156, "ELEMENT_SET_NO": 999, "REV_AT_EPOCH": 64949, "BSTAR": 0.00022590764, "MEAN_MOTION_DOT": 5.78e-06, "MEAN_MOTION_DDOT": 0}, "tle": {"line1": "1 32156U 99025CTA 25355.73017028  .00000578  00000+0  22591-3 0  9991", "line2": "2 32156  99.3545 166.0010 0082041  31.7205 328.8882 14.31964818649497"}}, "geometry": {"type": "Point", "coordinates": [-149.85842374001834, -75.35642299512482]}}, {"type": "Feature", "properties": {"norad_id": 32160, "name": "FENGYUN 1C DEB", "group": "fengyun-1c-debris", "lat": 4.4246513017679225, "lon": 157.3212766095581, "alt_km": 728.0886954929774, "timestamp": "2025-12-26T09:30:53.924007+00:00", "meta": {"OBJECT_NAME": "FENGYUN 1C DEB", "OBJECT_ID": "1999-025CTE", "EPOCH": "2025-12-24T05:42:44.692992", "MEAN_MOTION": 14.37597741, "ECCENTRICITY": 0.00816512, "INCLINATION": 98.8815, "RA_OF_ASC_NODE": 155.7856, "ARG_OF_PERICENTER": 324.8235, "MEAN_ANOMALY": 34.7576, "EPHEMERIS_TYPE": 0, "CLASSIFICATION_TYPE": "U", "NORAD_CAT_ID": 32160, "ELEMENT_SET_NO": 999, "REV_AT_EPOCH": 96052, "BSTAR": 0.00043465594, "MEAN_MOTION_DOT": 1.306e-05, "MEAN_MOTION_DDOT": 0}, "tle": {"line1": "1 32160U 99025CTE 25358.23801728  .00001306  00000+0  43466-3 0  9996", "line2": "2 32160  98.8815 155.7856 0081651 324.8235  34.7576 14.37597741960520"}}, "geometry": {"type": "Point", "coordinates": [157.3212766095581, 4.4246513017679225]}}, {"type": "Feature", "properties": {"norad_id": 32161, "name": "FENGYUN 1C DEB", "group": "fengyun-1c-debris", "lat": -28.20683602988117, "lon": -80.17742947245748, "alt_km": 810.5561211029335, "timestamp": "2025-12-26T09:30:53.924017+00:00", "meta": {"OBJECT_NAME": "FENGYUN 1C DEB", "OBJECT_ID": "1999-025CTF", "EPOCH": "2025-12-20T13:45:55.412928", "MEAN_MOTION": 14.01882373, "ECCENTRICITY": 0.0135471, "INCLINATION": 98.8321, "RA_OF_ASC_NODE": 98.9655, "ARG_OF_PERICENTER": 258.2246, "MEAN_ANOMALY": 100.3696, "EPHEMERIS_TYPE": 0, "CLASSIFICATION_TYPE": "U", "NORAD_CAT_ID": 32161, "ELEMENT_SET_NO": 999, "REV_AT_EPOCH": 63539, "BSTAR": 0.00038333, "MEAN_MOTION_DOT": 5.88e-06, "MEAN_MOTION_DDOT": 0}, "tle": {"line1": "1 32161U 99025CTF 25354.57355802  .00000588  00000+0  38333-3 0  9995", "line2": "2 32161  98.8321  98.9655 0135471 258.2246 100.3696 14.01882373635396"}}, "geometry": {"type": "Point", "coordinates": [-80.17742947245748, -28.20683602988117]}}, {"type": "Feature", "properties": {"norad_id": 32162, "name": "FENGYUN 1C DEB", "group": "fengyun-1c-debris", "lat": -53.85958928384074, "lon": 60.708214992876215, "alt_km": 726.7392576992215, "timestamp": "2025-12-26T09:30:53.924027+00:00", "meta": {"OBJECT_NAME": "FENGYUN 1C DEB", "OBJECT_ID": "1999-025CTG", "EPOCH": "2025-12-18T09:36:42.176160", "MEAN_MOTION": 14.62107639, "ECCENTRICITY": 0.00478844, "INCLINATION": 99.463, "RA_OF_ASC_NODE": 38.3597, "ARG_OF_PERICENTER": 153.8271, "MEAN_ANOMALY": 206.5361, "EPHEMERIS_TYPE": 0, "CLASSIFICATION_TYPE": "U", "NORAD_CAT_ID": 32162, "ELEMENT_SET_NO": 999, "REV_AT_EPOCH": 95001, "BSTAR": 0.0011169417, "MEAN_MOTION_DOT": 5.648e-05, "MEAN_MOTION_DDOT": 0}, "tle": {"line1": "1 32162U 99025CTG 25352.40048815  .00005648  00000+0  11169-2 0  9998", "line2": "2 32162  99.4630  38.3597 0047884 153.8271 206.5361 14.62107639950017"}}, "geometry": {"type": "Point", "coordinates": [60.708214992876215, -53.85958928384074]}}, {"type": "Feature", "properties": {"norad_id": 32163, "name": "FENGYUN 1C DEB", "group": "fengyun-1c-debris", "lat": -60.30516851289918, "lon": 25.019370966057256, "alt_km": 734.8750556066925, "timestamp": "2025-12-26T09:30:53.924038+00:00", "meta": {"OBJECT_NAME": "FENGYUN 1C DEB", "OBJECT_ID": "1999-025CTH", "EPOCH": "2025-12-24T19:31:43.013856", "MEAN_MOTION": 14.43196985, "ECCENTRICITY": 0.00511739, "INCLINATION": 99.5457, "RA_OF_ASC_NODE": 6.0859, "ARG_OF_PERICENTER": 359.6519, "MEAN_ANOMALY": 0.4623, "EPHEMERIS_TYPE": 0, "CLASSIFICATION_TYPE": "U", "NORAD_CAT_ID": 32163, "ELEMENT_SET_NO": 999, "REV_AT_EPOCH": 61150, "BSTAR": 0.00093751652, "MEAN_MOTION_DOT": 3.148e-05, "MEAN_MOTION_DDOT": 0}, "tle": {"line1": "1 32163U 99025CTH 25358.81369229  .00003148  00000+0  93752-3 0  9997", "line2": "2 32163  99.5457   6.0859 0051173 359.6519   0.4623 14.43196985611507"}}, "geometry": {"type": "Point", "coordinates": [25.019370966057256, -60.30516851289918]}}, {"type": "Feature", "properties": {"norad_id": 32167, "name": "FENGYUN 1C DEB", "group": "fengyun-1c-debris", "lat": 78.13500261692226, "lon": -50.64017318886964, "alt_km": 732.7148155596215, "timestamp": "2025-12-26T09:30:53.924048+00:00", "meta": {"OBJECT_NAME": "FENGYUN 1C DEB", "OBJECT_ID": "1999-025CTM", "EPOCH": "2025-12-23T05:37:55.562304", "MEAN_MOTION": 14.31006431, "ECCENTRICITY": 0.01683439, "INCLINATION": 98.4784, "RA_OF_ASC_NODE": 351.5064, "ARG_OF_PERICENTER": 23.7384, "MEAN_ANOMALY": 337.145, "EPHEMERIS_TYPE": 0, "CLASSIFICATION_TYPE": "U", "NORAD_CAT_ID": 32167, "ELEMENT_SET_NO": 999, "REV_AT_EPOCH": 62825, "BSTAR": 0.00039494566, "MEAN_MOTION_DOT": 1.167e-05, "MEAN_MOTION_DDOT": 0}, "tle": {"line1": "1 32167U 99025CTM 25357.23467086  .00001167  00000+0  39495-3 0  9999", "line2": "2 32167  98.4784 351.5064 0168343  23.7384 337.1450 14.31006431628256"}}, "geometry": {"type": "Point", "coordinates": [-50.64017318886964, 78.13500261692226]}}, {"type": "Feature", "properties": {"norad_id": 32168, "name": "FENGYUN 1C DEB", "group": "fengyun-1c-debris", "lat": -59.170642867877376, "lon": 93.00970679369279, "alt_km": 957.1010068153173, "timestamp": "2025-12-26T09:30:53.924058+00:00", "meta": {"OBJECT_NAME": "FENGYUN 1C DEB", "OBJECT_ID": "1999-025CTN", "EPOCH": "2025-12-22T15:44:38.689440", "MEAN_MOTION": 13.86225552, "ECCENTRICITY": 0.0243515, "INCLINATION": 101.656, "RA_OF_ASC_NODE": 68.1263, "ARG_OF_PERICENTER": 213.8835, "MEAN_ANOMALY": 144.6549, "EPHEMERIS_TYPE": 0, "CLASSIFICATION_TYPE": "U", "NORAD_CAT_ID": 32168, "ELEMENT_SET_NO": 999, "REV_AT_EPOCH": 63617, "BSTAR": 0.0032707228, "MEAN_MOTION_DOT": 4.707e-05, "MEAN_MOTION_DDOT": 0}, "tle": {"line1": "1 32168U 99025CTN 25356.65600335  .00004707  00000+0  32707-2 0  9992", "line2": "2 32168 101.6560  68.1263 0243515 213.8835 144.6549 13.86225552636172"}}, "geometry": {"type": "Point", "coordinates": [93.00970679369279, -59.170642867877376]}}, {"type": "Feature", "properties": {"norad_id": 32169, "name": "FENGYUN 1C DEB", "group": "fengyun-1c-debris", "lat": -76.94841975130794, "lon": -129.81005450006106, "alt_km": 695.2137050321053, "timestamp": "2025-12-26T09:30:53.924068+00:00", "meta": {"OBJECT_NAME": "FENGYUN 1C DEB", "OBJECT_ID": "1999-025CTP", "EPOCH": "2025-12-24T23:32:07.048032", "MEAN_MOTION": 14.68293957, "ECCENTRICITY": 0.00336615, "INCLINATION": 98.5575, "RA_OF_ASC_NODE": 188.2018, "ARG_OF_PERICENTER": 80.0606, "MEAN_ANOMALY": 280.4394, "EPHEMERIS_TYPE": 0, "CLASSIFICATION_TYPE": "U", "NORAD_CAT_ID": 32169, "ELEMENT_SET_NO": 999, "REV_AT_EPOCH": 96798, "BSTAR": 0.0040886304, "MEAN_MOTION_DOT": 0.00023814, "MEAN_MOTION_DDOT": 0}, "tle": {"line1": "1 32169U 99025CTP 25358.98063713  .00023814  00000+0  40886-2 0  9991", "line2": "2 32169  98.5575 188.2018 0033661  80.0606 280.4394 14.68293957967982"}}, "geometry": {"type": "Point", "coordinates": [-129.81005450006106, -76.94841975130794]}}]}